[{"OBJECT_NAME":"STARLINK-30041","OBJECT_ID":"2023-119M","EPOCH":"2026-03-09T22:00:01.999584","MEAN_MOTION":15.15940564,"ECCENTRICITY":0.00012576,"INCLINATION":43.0013,"RA_OF_ASC_NODE":79.6987,"ARG_OF_PERICENTER":273.3411,"MEAN_ANOMALY":241.7822,"EPHEMERIS_TYPE":0,"CLASSIFICATION_TYPE":"U","NORAD_CAT_ID":57613,"ELEMENT_SET_NO":999,"REV_AT_EPOCH":562,"BSTAR":0.06109031,"MEAN_MOTION_DOT":0.01292259,"MEAN_MOTION_DDOT":0},{"OBJECT_NAME":"IRIDE FM4","OBJECT_ID":"2025-276AJ","EPOCH":"2026-03-09T18:15:25.902144","MEAN_MOTION":15.18565498,"ECCENTRICITY":0.00038717,"INCLINATION":97.4251,"RA_OF_ASC_NODE":143.9634,"ARG_OF_PERICENTER":14.8227,"MEAN_ANOMALY":345.312,"EPHEMERIS_TYPE":0,"CLASSIFICATION_TYPE":"U","NORAD_CAT_ID":66698,"ELEMENT_SET_NO":999,"REV_AT_EPOCH":1532,"BSTAR":0.00040962918,"MEAN_MOTION_DOT":8.403e-5,"MEAN_MOTION_DDOT":0}]
